{
  "norad_id": 64582,
  "name": "IRIDE-MS2-HEO-4",
  "history": [
    {
      "epoch": "2026-03-28T21:10:37.322688Z",
      "apogee_km": 587.3715995029315,
      "perigee_km": 583.0087964803024,
      "latitude_deg": -1.6527450447036512e-06,
      "longitude_deg": 59.32044321882483,
      "height_km": 589.4439802109388,
      "semi_major_axis_km": 6963.327197991617,
      "eccentricity": 0.00031327,
      "inclination_deg": 97.7615,
      "raan_deg": 203.2724,
      "arg_perigee_deg": 236.4575,
      "mean_anomaly_deg": 123.6346,
      "mean_motion_rev_day": 14.94092749
    },
    {
      "epoch": "2026-03-29T05:12:49.065984Z",
      "apogee_km": 587.3817636762851,
      "perigee_km": 582.9837309238892,
      "latitude_deg": 5.140330722878372e-05,
      "longitude_deg": -61.22764555225328,
      "height_km": 589.4810314835404,
      "semi_major_axis_km": 6963.319747300086,
      "eccentricity": 0.0003158,
      "inclination_deg": 97.7615,
      "raan_deg": 203.6033,
      "arg_perigee_deg": 235.3634,
      "mean_anomaly_deg": 124.7289,
      "mean_motion_rev_day": 14.94095147
    },
    {
      "epoch": "2026-03-30T05:19:23.958048Z",
      "apogee_km": 587.4103957767738,
      "perigee_km": 582.9051440606363,
      "latitude_deg": -4.0198523705666e-05,
      "longitude_deg": -62.8701659577512,
      "height_km": 589.6103758362212,
      "semi_major_axis_km": 6963.294769918705,
      "eccentricity": 0.0003235,
      "inclination_deg": 97.7617,
      "raan_deg": 204.5963,
      "arg_perigee_deg": 231.4378,
      "mean_anomaly_deg": 128.6552,
      "mean_motion_rev_day": 14.94103186
    },
    {
      "epoch": "2026-03-30T06:55:50.274912Z",
      "apogee_km": 587.417066322655,
      "perigee_km": 582.8976097654904,
      "latitude_deg": 6.613953909068169e-05,
      "longitude_deg": -86.97974378144097,
      "height_km": 589.6207785039483,
      "semi_major_axis_km": 6963.294338044073,
      "eccentricity": 0.00032452,
      "inclination_deg": 97.7617,
      "raan_deg": 204.6624,
      "arg_perigee_deg": 231.2295,
      "mean_anomaly_deg": 128.8636,
      "mean_motion_rev_day": 14.94103325
    },
    {
      "epoch": "2026-03-30T13:21:35.511264Z",
      "apogee_km": 587.4411908517459,
      "perigee_km": 582.8621322279178,
      "latitude_deg": 2.9935695901090853e-05,
      "longitude_deg": 176.5825374467084,
      "height_km": 589.6648041648593,
      "semi_major_axis_km": 6963.288661539832,
      "eccentricity": 0.0003288,
      "inclination_deg": 97.7618,
      "raan_deg": 204.9272,
      "arg_perigee_deg": 230.2264,
      "mean_anomaly_deg": 129.8667,
      "mean_motion_rev_day": 14.94105152
    },
    {
      "epoch": "2026-03-30T21:23:47.011776Z",
      "apogee_km": 587.4542197800065,
      "perigee_km": 582.8345003944705,
      "latitude_deg": 1.5240773436635282e-05,
      "longitude_deg": 56.03557255182072,
      "height_km": 589.7042052330827,
      "semi_major_axis_km": 6963.281360087239,
      "eccentricity": 0.00033172,
      "inclination_deg": 97.7619,
      "raan_deg": 205.2582,
      "arg_perigee_deg": 229.1298,
      "mean_anomaly_deg": 130.9635,
      "mean_motion_rev_day": 14.94107502
    },
    {
      "epoch": "2026-03-31T21:30:21.373344Z",
      "apogee_km": 587.5175987866105,
      "perigee_km": 582.7352294737857,
      "latitude_deg": -3.4257924957578053e-05,
      "longitude_deg": 54.39506362044217,
      "height_km": 589.8549668876655,
      "semi_major_axis_km": 6963.263414130198,
      "eccentricity": 0.0003434,
      "inclination_deg": 97.762,
      "raan_deg": 206.251,
      "arg_perigee_deg": 225.3593,
      "mean_anomaly_deg": 134.7347,
      "mean_motion_rev_day": 14.94113278
    },
    {
      "epoch": "2026-04-01T20:00:29.150208Z",
      "apogee_km": 587.5665335011381,
      "perigee_km": 582.6602272831142,
      "latitude_deg": -3.2078180868801767e-06,
      "longitude_deg": 76.86512610148394,
      "height_km": 590.0051611044266,
      "semi_major_axis_km": 6963.250380392125,
      "eccentricity": 0.0003523,
      "inclination_deg": 97.7622,
      "raan_deg": 207.1776,
      "arg_perigee_deg": 221.2804,
      "mean_anomaly_deg": 138.815,
      "mean_motion_rev_day": 14.94117473
    },
    {
      "epoch": "2026-04-02T20:07:02.824032Z",
      "apogee_km": 587.6254110067175,
      "perigee_km": 582.5547890324833,
      "latitude_deg": 6.607397446485045e-05,
      "longitude_deg": 75.22747392017631,
      "height_km": 590.1492552458542,
      "semi_major_axis_km": 6963.2271000196,
      "eccentricity": 0.0003641,
      "inclination_deg": 97.7622,
      "raan_deg": 208.1704,
      "arg_perigee_deg": 217.5155,
      "mean_anomaly_deg": 142.5812,
      "mean_motion_rev_day": 14.94124966
    },
    {
      "epoch": "2026-04-02T21:43:29.021664Z",
      "apogee_km": 587.6201515464973,
      "perigee_km": 582.5420158624138,
      "latitude_deg": 5.987266885084279e-06,
      "longitude_deg": 51.118416786965234,
      "height_km": 590.1477656824339,
      "semi_major_axis_km": 6963.218083704455,
      "eccentricity": 0.00036464,
      "inclination_deg": 97.7622,
      "raan_deg": 208.2365,
      "arg_perigee_deg": 217.3469,
      "mean_anomaly_deg": 142.7498,
      "mean_motion_rev_day": 14.94127868
    },
    {
      "epoch": "2026-04-03T20:13:35.964768Z",
      "apogee_km": 587.6552373396307,
      "perigee_km": 582.4551254185781,
      "latitude_deg": 9.558056057592042e-05,
      "longitude_deg": 73.59205367164857,
      "height_km": 590.2663060284393,
      "semi_major_axis_km": 6963.192181379104,
      "eccentricity": 0.0003734,
      "inclination_deg": 97.7623,
      "raan_deg": 209.1632,
      "arg_perigee_deg": 213.7019,
      "mean_anomaly_deg": 146.3965,
      "mean_motion_rev_day": 14.94136205
    },
    {
      "epoch": "2026-04-04T20:20:08.555136Z",
      "apogee_km": 587.6817731101755,
      "perigee_km": 582.3772328681989,
      "latitude_deg": -5.811256886991505e-05,
      "longitude_deg": 71.95915687147073,
      "height_km": 590.3960026480668,
      "semi_major_axis_km": 6963.166502989187,
      "eccentricity": 0.0003809,
      "inclination_deg": 97.7624,
      "raan_deg": 210.1562,
      "arg_perigee_deg": 209.0473,
      "mean_anomaly_deg": 151.0535,
      "mean_motion_rev_day": 14.9414447
    },
    {
      "epoch": "2026-04-05T14:00:56.193408Z",
      "apogee_km": 587.7066314329641,
      "perigee_km": 582.3234186024238,
      "latitude_deg": 2.9861234004732998e-05,
      "longitude_deg": 166.76266328076153,
      "height_km": 590.4887421353191,
      "semi_major_axis_km": 6963.152025017694,
      "eccentricity": 0.00038655,
      "inclination_deg": 97.7624,
      "raan_deg": 210.8843,
      "arg_perigee_deg": 205.6639,
      "mean_anomaly_deg": 154.439,
      "mean_motion_rev_day": 14.9414913
    },
    {
      "epoch": "2026-04-05T20:26:40.742016Z",
      "apogee_km": 587.7017988054731,
      "perigee_km": 582.3137173916566,
      "latitude_deg": 1.1250708422635921e-06,
      "longitude_deg": 70.32781615335445,
      "height_km": 590.5076079588356,
      "semi_major_axis_km": 6963.144758098564,
      "eccentricity": 0.0003869,
      "inclination_deg": 97.7624,
      "raan_deg": 211.1491,
      "arg_perigee_deg": 204.458,
      "mean_anomaly_deg": 155.6457,
      "mean_motion_rev_day": 14.94151469
    },
    {
      "epoch": "2026-04-06T06:05:17.531232Z",
      "apogee_km": 587.7117277093375,
      "perigee_km": 582.2934302773401,
      "latitude_deg": 1.2390020404907236e-05,
      "longitude_deg": -74.32442129936405,
      "height_km": 590.5527499017627,
      "semi_major_axis_km": 6963.139578993339,
      "eccentricity": 0.00038907,
      "inclination_deg": 97.7624,
      "raan_deg": 211.5462,
      "arg_perigee_deg": 202.5102,
      "mean_anomaly_deg": 157.5948,
      "mean_motion_rev_day": 14.94153136
    },
    {
      "epoch": "2026-04-07T14:13:59.686752Z",
      "apogee_km": 587.7491372949517,
      "perigee_km": 582.2064979001452,
      "latitude_deg": -2.807107066830215e-05,
      "longitude_deg": 163.50398258062032,
      "height_km": 590.6751118972344,
      "semi_major_axis_km": 6963.114817597549,
      "eccentricity": 0.000398,
      "inclination_deg": 97.7626,
      "raan_deg": 212.8704,
      "arg_perigee_deg": 196.9985,
      "mean_anomaly_deg": 163.1102,
      "mean_motion_rev_day": 14.94161106
    },
    {
      "epoch": "2026-04-07T20:39:44.065152Z",
      "apogee_km": 587.7531479801291,
      "perigee_km": 582.1938005774655,
      "latitude_deg": 1.932863316291209e-05,
      "longitude_deg": 67.06983596722209,
      "height_km": 590.696326461189,
      "semi_major_axis_km": 6963.1104742787975,
      "eccentricity": 0.0003992,
      "inclination_deg": 97.7627,
      "raan_deg": 213.1352,
      "arg_perigee_deg": 195.704,
      "mean_anomaly_deg": 164.4057,
      "mean_motion_rev_day": 14.94162504
    },
    {
      "epoch": "2026-04-08T14:20:30.952608Z",
      "apogee_km": 587.7648278267525,
      "perigee_km": 582.1599506043958,
      "latitude_deg": 2.606354489564981e-05,
      "longitude_deg": 161.87648929340753,
      "height_km": 590.7449541982626,
      "semi_major_axis_km": 6963.099389215574,
      "eccentricity": 0.00040247,
      "inclination_deg": 97.7627,
      "raan_deg": 213.8633,
      "arg_perigee_deg": 192.511,
      "mean_anomaly_deg": 167.6011,
      "mean_motion_rev_day": 14.94166072
    },
    {
      "epoch": "2026-04-09T19:16:20.013888Z",
      "apogee_km": 587.7913076129835,
      "perigee_km": 582.0829794301253,
      "latitude_deg": -5.066141049372104e-06,
      "longitude_deg": 87.92584294625317,
      "height_km": 590.8095957578852,
      "semi_major_axis_km": 6963.074143521554,
      "eccentricity": 0.0004099,
      "inclination_deg": 97.7629,
      "raan_deg": 215.0552,
      "arg_perigee_deg": 188.032,
      "mean_anomaly_deg": 172.0835,
      "mean_motion_rev_day": 14.94174198
    },
    {
      "epoch": "2026-04-10T11:20:40.364160Z",
      "apogee_km": 587.8042811756204,
      "perigee_km": 582.047220893066,
      "latitude_deg": -4.501270975528644e-05,
      "longitude_deg": -153.1569128465776,
      "height_km": 590.8360044064968,
      "semi_major_axis_km": 6963.062751034343,
      "eccentricity": 0.0004134,
      "inclination_deg": 97.763,
      "raan_deg": 215.7173,
      "arg_perigee_deg": 185.7239,
      "mean_anomaly_deg": 174.3934,
      "mean_motion_rev_day": 14.94177865
    }
  ]
}